CCSDS_OMM_VERS,COMMENT,CREATION_DATE,ORIGINATOR,OBJECT_NAME,OBJECT_ID,CENTER_NAME,REF_FRAME,TIME_SYSTEM,MEAN_ELEMENT_THEORY,EPOCH,MEAN_MOTION,ECCENTRICITY,INCLINATION,RA_OF_ASC_NODE,ARG_OF_PERICENTER,MEAN_ANOMALY,EPHEMERIS_TYPE,CLASSIFICATION_TYPE,NORAD_CAT_ID,ELEMENT_SET_NO,REV_AT_EPOCH,BSTAR,MEAN_MOTION_DOT,MEAN_MOTION_DDOT,SEMIMAJOR_AXIS,PERIOD,APOAPSIS,PERIAPSIS,OBJECT_TYPE,RCS_SIZE,COUNTRY_CODE,LAUNCH_DATE,SITE,DECAY_DATE,FILE,GP_ID,TLE_LINE0,TLE_LINE1,TLE_LINE2,NORAD_KEY,JCAT,DeepCat,Satcat,Piece,Active,Type,Name,LDate,Parent,Owner,State,SDate,ExpandedStatus,DDate,ODate,Period,Perigee,PF,Apogee,AF,Inc,IF,OpOrbit,SATCAT_KEY
3.0,GENERATED VIA SPACE-TRACK.ORG API,2026-05-06T10:08:52,18 SPCS,EXPRESS AM-2,2005-010A,EARTH,TEME,UTC,SGP4,2026-05-06T04:24:19.502784,0.99043311,0.00183633,9.6157,55.7087,100.7517,96.0846,0,U,28629,999,4014,0.00000000000000,-0.00000232,0.0000000000000,42512.673,1453.909,36212.605,36056.47,PAYLOAD,LARGE,CIS,2005-03-29,TTMTR,,5176958,322266511,0 EXPRESS AM-2,1 28629U 05010A   26126.18355906 -.00000232  00000-0  00000-0 0  9995,2 28629   9.6157  55.7087 0018363 100.7517  96.0846  0.99043311 40143,28629,S28629,-,28629,2005-010A,P,P,Ekspress AM-2,2005 Mar 29,S28634,KS,RU,2005 Mar 30 0405,In Earth orbit,-,2026 May  5 ,    1453.905 ,   36056, ,   36212, ,  9.61 , ,GEO/ID,28629
3.0,GENERATED VIA SPACE-TRACK.ORG API,2026-05-06T10:08:52,18 SPCS,EUTE 33A (EB 3),2003-043A,EARTH,TEME,UTC,SGP4,2026-05-06T02:48:34.515360,0.98887964,0.00034635,9.6471,56.0744,214.3617,342.9547,0,U,27948,999,4464,0.00000000000000,-0.00000212,0.0000000000000,42557.184,1456.193,36193.789,36164.309,PAYLOAD,MEDIUM,EUTE,2003-09-27,FRGUI,,5176958,322266869,0 EUTE 33A (EB 3),1 27948U 03043A   26126.11706615 -.00000212  00000-0  00000-0 0  9990,2 27948   9.6471  56.0744 0003464 214.3617 342.9547  0.98887964 44647,27948,S27948,-,27948,2003-043A,P,P,EUTELSAT 31A,2003 Sep 27,S27952,EUTSA,F,2003 Sep 27 2347,In Earth orbit,-,2026 May  5 ,    1456.193 ,   36164, ,   36193, ,  9.64 , ,GEO/ID,27948
3.0,GENERATED VIA SPACE-TRACK.ORG API,2026-05-06T14:46:56,18 SPCS,GORIZONT 8,1983-118A,EARTH,TEME,UTC,SGP4,2026-05-06T07:52:38.641728,0.98272311,0.00254,9.6703,314.884,182.9988,9.7236,0,U,14532,999,12009,0.00000000000000,-0.00000215,0.0000000000000,42734.74,1465.316,36465.151,36248.058,PAYLOAD,LARGE,CIS,1983-11-30,TTMTR,,5177261,322300623,0 GORIZONT 8,1 14532U 83118A   26126.32822502 -.00000215  00000-0  00000+0 0  9995,2 14532   9.6703 314.8840 0025400 182.9988   9.7236  0.98272311120098,14532,S14532,-,14532,1983-118A,P,P,Gorizont,1983 Nov 30,S14548,KS,SU,1983 Nov 30 2028?,In Earth orbit,-,2026 May  5 ,    1465.318 ,   36248, ,   36465, ,  9.67 , ,GEO/ID,14532
3.0,GENERATED VIA SPACE-TRACK.ORG API,2026-05-06T14:46:56,18 SPCS,RADUGA 17,1985-107A,EARTH,TEME,UTC,SGP4,2026-05-06T11:31:58.008000,1.00134151,0.0012469,9.6774,318.6386,233.3856,306.9052,0,U,16250,999,15125,0.00000000000000,-0.00000301,0.0000000000000,42203.36,1438.071,35877.848,35772.602,PAYLOAD,LARGE,CIS,1985-11-15,TTMTR,,5177286,322300941,0 RADUGA 17,1 16250U 85107A   26126.48053250 -.00000301  00000-0  00000+0 0  9993,2 16250   9.6774 318.6386 0012469 233.3856 306.9052  1.00134151151251,16250,S16250,-,16250,1985-107A,P,P,Raduga,1985 Nov 15,S16339,VVKOV,SU,1985 Nov 15 2107?,In Earth orbit,-,2026 May  4 ,    1438.061 ,   35772, ,   35877, ,  9.68 , ,GEO/ID,16250
3.0,GENERATED VIA SPACE-TRACK.ORG API,2026-05-06T14:56:52,18 SPCS,UFO 4 (USA 108),1995-003A,EARTH,TEME,UTC,SGP4,2026-05-06T13:25:47.864064,1.0027498,0.0003377,9.7091,13.3721,28.5686,196.2811,0,U,23467,999,11453,0.00000000000000,-0.00000014,0.0000000000000,42163.836,1436.051,35799.94,35771.463,PAYLOAD,LARGE,US,1995-01-29,AFETR,,5177508,322305720,0 UFO 4 (USA 108),1 23467U 95003A   26126.55958176 -.00000014  00000-0  00000+0 0  9997,2 23467   9.7091  13.3721 0003377  28.5686 196.2811  1.00274980114535,23467,S23467,-,23467,1995-003A,A,P,UHF F/O F4,1995 Jan 29,S23468,HCIE,US,1995 Jan 29 0153,In Earth orbit,-,2026 May  4 ,    1436.055 ,   35771, ,   35799, ,  9.71 , ,GEO/I,23467
3.0,GENERATED VIA SPACE-TRACK.ORG API,2026-05-06T02:32:52,18 SPCS,ASIASAT 3S,1999-013A,EARTH,TEME,UTC,SGP4,2026-05-05T13:08:10.762656,0.988724,0.00046198,9.7176,55.291,3.4219,235.8415,0,U,25657,999,9916,0.00000000000000,0.00000057,0.0000000000000,42561.65,1456.423,36203.178,36163.852,PAYLOAD,LARGE,AC,1999-03-21,TTMTR,,5176277,322216671,0 ASIASAT 3S,1 25657U 99013A   26125.54734679  .00000057  00000-0  00000-0 0  9990,2 25657   9.7176  55.2910 0004620   3.4219 235.8415  0.98872400 99161,25657,S25657,-,25657,1999-013A,P,P,Asiasat 3S,1999 Mar 21,S25660,ASIA,HK,1999 Mar 21 0649,In Earth orbit,-,2026 May  4 ,    1456.426 ,   36163, ,   36203, ,  9.72 , ,GEO/ID,25657
3.0,GENERATED VIA SPACE-TRACK.ORG API,2026-05-06T14:56:52,18 SPCS,INMARSAT 3-F2,1996-053A,EARTH,TEME,UTC,SGP4,2026-05-06T13:15:36.069120,0.99998453,0.0006685,9.7655,54.3561,353.494,205.1744,0,U,24307,999,10850,0.00000000000000,0.00000067,0.0000000000000,42241.531,1440.022,35891.635,35835.158,PAYLOAD,LARGE,IM,1996-09-06,TTMTR,,5177530,322306009,0 INMARSAT 3-F2,1 24307U 96053A   26126.55250080  .00000067  00000-0  00000+0 0  9993,2 24307   9.7655  54.3561 0006685 353.4940 205.1744  0.99998453108500,24307,S24307,-,24307,1996-053A,P,P,INMARSAT III F-2,1996 Sep  6,S25339,INMRV,UK,1996 Sep  7 0032,In Earth orbit,-,2026 May  4 ,    1440.033 ,   35835, ,   35891, ,  9.76 , ,GEO/ID,24307
3.0,GENERATED VIA SPACE-TRACK.ORG API,2026-05-06T14:46:56,18 SPCS,COSMOS 1700,1985-102A,EARTH,TEME,UTC,SGP4,2026-05-06T13:41:04.003008,1.00317173,0.0003628,9.7821,319.1304,241.1529,305.8004,0,U,16199,999,15125,0.00000000000000,-0.00000123,0.0000000000000,42152.013,1435.447,35789.171,35758.585,PAYLOAD,LARGE,CIS,1985-10-25,TTMTR,,5177284,322300918,0 COSMOS 1700,1 16199U 85102A   26126.57018522 -.00000123  00000-0  00000+0 0  9995,2 16199   9.7821 319.1304 0003628 241.1529 305.8004  1.00317173151256,16199,S16199,-,16199,1985-102A,P,P,Kosmos-1700,1985 Oct 25,S16214,VVKOV,SU,1985 Oct 25 2224?,In Earth orbit,-,2026 May  5 ,    1435.447 ,   35758, ,   35789, ,  9.78 , ,GEO/ID,16199
3.0,GENERATED VIA SPACE-TRACK.ORG API,2026-05-06T02:32:52,18 SPCS,BEIDOU 1D,2007-003A,EARTH,TEME,UTC,SGP4,2026-05-05T17:09:24.666048,0.99156085,0.00550366,9.7955,57.4002,274.3108,266.0588,0,U,30323,999,7028,0.00000000000000,-0.00000206,0.0000000000000,42480.432,1452.256,36336.095,35868.499,PAYLOAD,LARGE,PRC,2007-02-02,XSC,,5176277,322218229,0 BEIDOU 1D,1 30323U 07003A   26125.71486882 -.00000206  00000-0  00000-0 0  9990,2 30323   9.7955  57.4002 0055037 274.3108 266.0588  0.99156085 70286,30323,S30323,-,30323,2007-003A,P,P      G,Beidou DSW 4,2007 Feb  2,S30324,CNSA,CN,2007 Feb  2 1652,In Earth orbit,-,2026 May  5 ,    1452.252 ,   35868, ,   36336, ,  9.79 , ,GEO/ID,30323
3.0,GENERATED VIA SPACE-TRACK.ORG API,2026-05-06T14:56:52,18 SPCS,THURAYA 1,2000-066A,EARTH,TEME,UTC,SGP4,2026-05-06T08:20:38.853024,0.9898527,0.0010525,9.7996,22.3868,358.6007,3.4764,0,U,26578,999,9275,0.00000000000000,0.00000002,0.0000000000000,42529.289,1454.762,36195.917,36106.392,PAYLOAD,LARGE,UAE,2000-10-21,SEAL,,5177594,322307852,0 THURAYA 1,1 26578U 00066A   26126.34767191  .00000002  00000-0  00000+0 0  9996,2 26578   9.7996  22.3868 0010525 358.6007   3.4764  0.98985270 92756,26578,S26578,-,26578,2000-066A,P,P,Thuraya 1,2000 Oct 21,S26579,THURY,UAE,2000 Oct 21 0751,In Earth orbit,-,2026 May  4 ,    1454.772 ,   36106, ,   36196, ,  9.80 , ,GEO/ID,26578
3.0,GENERATED VIA SPACE-TRACK.ORG API,2026-05-06T10:08:52,18 SPCS,UFO 10 (USA 146),1999-063A,EARTH,TEME,UTC,SGP4,2026-05-06T01:03:07.130592,1.00270656,0.00031114,9.8493,27.4308,345.4429,204.0482,0,U,25967,999,9692,0.00000000000000,-0.00000181,0.0000000000000,42165.049,1436.113,35800.033,35773.795,PAYLOAD,LARGE,US,1999-11-23,AFETR,,5176958,322265445,0 UFO 10 (USA 146),1 25967U 99063A   26126.04383253 -.00000181  00000-0  00000-0 0  9992,2 25967   9.8493  27.4308 0003111 345.4429 204.0482  1.00270656 96928,25967,S25967,-,25967,1999-063A,A,P,UHF F/O F10,1999 Nov 23,S25968,PMW146,US,1999 Nov 23 0433,In Earth orbit,-,2026 May  5 ,    1436.111 ,   35773, ,   35800, ,  9.85 , ,GEO/I,25967
3.0,GENERATED VIA SPACE-TRACK.ORG API,2026-05-06T14:56:52,18 SPCS,TDRS 10,2002-055A,EARTH,TEME,UTC,SGP4,2026-05-06T07:49:02.970048,0.98860757,0.0012602,10.0085,43.3644,252.7432,318.6028,0,U,27566,999,8578,0.00000000000000,-0.00000033,0.0000000000000,42564.992,1456.594,36240.497,36133.216,PAYLOAD,LARGE,US,2002-12-05,AFETR,,5177614,322308654,0 TDRS 10,1 27566U 02055A   26126.32572882 -.00000033  00000-0  00000+0 0  9998,2 27566  10.0085  43.3644 0012602 252.7432 318.6028  0.98860757 85788,27566,S27566,-,27566,2002-055A,P,P,TDRS 10,2002 Dec  5,S27567,GSFC,US,2002 Dec  5 0321,In Earth orbit,-,2026 May  5 ,    1456.590 ,   36132, ,   36240, , 10.01 , ,GEO/ID,27566
3.0,GENERATED VIA SPACE-TRACK.ORG API,2026-05-06T14:46:56,18 SPCS,SBS 1,1980-091A,EARTH,TEME,UTC,SGP4,2026-05-06T11:01:07.301856,0.99816661,0.0005887,10.066,318.072,174.8737,170.2956,0,U,12065,999,4605,0.00000000000000,-0.00000151,0.0000000000000,42292.804,1442.645,35939.567,35889.772,PAYLOAD,LARGE,US,1980-11-15,AFETR,,5177222,322299639,0 SBS 1,1 12065U 80091A   26126.45911229 -.00000151  00000-0  00000+0 0  9999,2 12065  10.0660 318.0720 0005887 174.8737 170.2956  0.99816661 46056,12065,S12065,-,12065,1980-091A,P,P,SBS 1,1980 Nov 15,S12336,IGC,US,1980 Nov 15 2313,In Earth orbit,-,2026 May  5 ,    1442.640 ,   35889, ,   35939, , 10.07 , ,GEO/ID,12065
